[{"OBJECT_NAME":"STARLINK-31200","OBJECT_ID":"2024-019K","EPOCH":"2026-03-06T19:32:42.254016","MEAN_MOTION":15.27571667,"ECCENTRICITY":0.00016195,"INCLINATION":43.0018,"RA_OF_ASC_NODE":265.0781,"ARG_OF_PERICENTER":256.795,"MEAN_ANOMALY":103.2721,"EPHEMERIS_TYPE":0,"CLASSIFICATION_TYPE":"U","NORAD_CAT_ID":58862,"ELEMENT_SET_NO":999,"REV_AT_EPOCH":11864,"BSTAR":5.3880137e-5,"MEAN_MOTION_DOT":1.22e-5,"MEAN_MOTION_DDOT":0},{"OBJECT_NAME":"STARLINK-31149","OBJECT_ID":"2024-019L","EPOCH":"2026-03-07T05:52:57.002880","MEAN_MOTION":15.27583667,"ECCENTRICITY":0.00012718,"INCLINATION":43.0015,"RA_OF_ASC_NODE":262.2927,"ARG_OF_PERICENTER":274.3269,"MEAN_ANOMALY":85.7438,"EPHEMERIS_TYPE":0,"CLASSIFICATION_TYPE":"U","NORAD_CAT_ID":58863,"ELEMENT_SET_NO":999,"REV_AT_EPOCH":11871,"BSTAR":8.2264522e-5,"MEAN_MOTION_DOT":2.003e-5,"MEAN_MOTION_DDOT":0},{"OBJECT_NAME":"STARLINK-31242","OBJECT_ID":"2024-019M","EPOCH":"2026-03-06T14:59:29.002272","MEAN_MOTION":15.27578067,"ECCENTRICITY":0.00013816,"INCLINATION":43.0012,"RA_OF_ASC_NODE":266.2359,"ARG_OF_PERICENTER":272.1056,"MEAN_ANOMALY":87.9638,"EPHEMERIS_TYPE":0,"CLASSIFICATION_TYPE":"U","NORAD_CAT_ID":58864,"ELEMENT_SET_NO":999,"REV_AT_EPOCH":11861,"BSTAR":1.5025108e-5,"MEAN_MOTION_DOT":1.51e-6,"MEAN_MOTION_DDOT":0},{"OBJECT_NAME":"STARLINK-31223","OBJECT_ID":"2024-019N","EPOCH":"2026-03-06T15:01:20.250912","MEAN_MOTION":15.27576742,"ECCENTRICITY":0.00011978,"INCLINATION":43.0014,"RA_OF_ASC_NODE":266.2519,"ARG_OF_PERICENTER":265.9374,"MEAN_ANOMALY":94.134,"EPHEMERIS_TYPE":0,"CLASSIFICATION_TYPE":"U","NORAD_CAT_ID":58865,"ELEMENT_SET_NO":999,"REV_AT_EPOCH":11859,"BSTAR":1.0264148e-5,"MEAN_MOTION_DOT":2.0e-7,"MEAN_MOTION_DDOT":0},{"OBJECT_NAME":"STARLINK-31219","OBJECT_ID":"2024-019P","EPOCH":"2026-03-06T12:52:01.765920","MEAN_MOTION":15.27572948,"ECCENTRICITY":8.974e-5,"INCLINATION":43.0021,"RA_OF_ASC_NODE":266.4307,"ARG_OF_PERICENTER":269.5453,"MEAN_ANOMALY":90.5296,"EPHEMERIS_TYPE":0,"CLASSIFICATION_TYPE":"U","NORAD_CAT_ID":58866,"ELEMENT_SET_NO":999,"REV_AT_EPOCH":11858,"BSTAR":-1.5109711e-5,"MEAN_MOTION_DOT":-6.78e-6,"MEAN_MOTION_DDOT":0},{"OBJECT_NAME":"STARLINK-31198","OBJECT_ID":"2024-019Q","EPOCH":"2026-03-07T06:20:41.725248","MEAN_MOTION":15.2757436,"ECCENTRICITY":0.00013951,"INCLINATION":43.0021,"RA_OF_ASC_NODE":262.4211,"ARG_OF_PERICENTER":266.5307,"MEAN_ANOMALY":93.5385,"EPHEMERIS_TYPE":0,"CLASSIFICATION_TYPE":"U","NORAD_CAT_ID":58867,"ELEMENT_SET_NO":999,"REV_AT_EPOCH":11869,"BSTAR":4.661027e-5,"MEAN_MOTION_DOT":1.02e-5,"MEAN_MOTION_DDOT":0},{"OBJECT_NAME":"STARLINK-31196","OBJECT_ID":"2024-019R","EPOCH":"2026-03-07T05:43:53.500224","MEAN_MOTION":15.27579257,"ECCENTRICITY":0.00011293,"INCLINATION":42.9979,"RA_OF_ASC_NODE":263.0988,"ARG_OF_PERICENTER":279.7239,"MEAN_ANOMALY":80.3485,"EPHEMERIS_TYPE":0,"CLASSIFICATION_TYPE":"U","NORAD_CAT_ID":58868,"ELEMENT_SET_NO":999,"REV_AT_EPOCH":11868,"BSTAR":6.4801503e-5,"MEAN_MOTION_DOT":1.522e-5,"MEAN_MOTION_DDOT":0},{"OBJECT_NAME":"STARLINK-31203","OBJECT_ID":"2024-019S","EPOCH":"2026-03-06T14:43:31.371456","MEAN_MOTION":15.27574533,"ECCENTRICITY":0.00013831,"INCLINATION":43.0012,"RA_OF_ASC_NODE":262.6703,"ARG_OF_PERICENTER":261.7966,"MEAN_ANOMALY":98.2729,"EPHEMERIS_TYPE":0,"CLASSIFICATION_TYPE":"U","NORAD_CAT_ID":58869,"ELEMENT_SET_NO":999,"REV_AT_EPOCH":11865,"BSTAR":6.7861245e-5,"MEAN_MOTION_DOT":1.605e-5,"MEAN_MOTION_DDOT":0},{"OBJECT_NAME":"STARLINK-31201","OBJECT_ID":"2024-019T","EPOCH":"2026-03-07T05:56:38.325120","MEAN_MOTION":15.2757782,"ECCENTRICITY":0.0001269,"INCLINATION":43.0004,"RA_OF_ASC_NODE":262.3108,"ARG_OF_PERICENTER":276.2134,"MEAN_ANOMALY":83.8573,"EPHEMERIS_TYPE":0,"CLASSIFICATION_TYPE":"U","NORAD_CAT_ID":58870,"ELEMENT_SET_NO":999,"REV_AT_EPOCH":11869,"BSTAR":4.1115384e-5,"MEAN_MOTION_DOT":8.69e-6,"MEAN_MOTION_DDOT":0},{"OBJECT_NAME":"STARLINK-31214","OBJECT_ID":"2024-019U","EPOCH":"2026-03-06T14:33:35.142336","MEAN_MOTION":15.27571362,"ECCENTRICITY":0.000103,"INCLINATION":43.0041,"RA_OF_ASC_NODE":266.0829,"ARG_OF_PERICENTER":260.7491,"MEAN_ANOMALY":99.3245,"EPHEMERIS_TYPE":0,"CLASSIFICATION_TYPE":"U","NORAD_CAT_ID":58871,"ELEMENT_SET_NO":999,"REV_AT_EPOCH":11859,"BSTAR":8.025134e-6,"MEAN_MOTION_DOT":-4.1e-7,"MEAN_MOTION_DDOT":0},{"OBJECT_NAME":"STARLINK-31215","OBJECT_ID":"2024-019V","EPOCH":"2026-03-07T06:18:51.273216","MEAN_MOTION":15.2757497,"ECCENTRICITY":0.0001214,"INCLINATION":43.0059,"RA_OF_ASC_NODE":262.4265,"ARG_OF_PERICENTER":304.4022,"MEAN_ANOMALY":55.6715,"EPHEMERIS_TYPE":0,"CLASSIFICATION_TYPE":"U","NORAD_CAT_ID":58872,"ELEMENT_SET_NO":999,"REV_AT_EPOCH":11869,"BSTAR":2.7936635e-5,"MEAN_MOTION_DOT":5.07e-6,"MEAN_MOTION_DDOT":0},{"OBJECT_NAME":"STARLINK-31177","OBJECT_ID":"2024-019W","EPOCH":"2026-03-06T14:29:51.792288","MEAN_MOTION":15.27581435,"ECCENTRICITY":0.00013263,"INCLINATION":42.9988,"RA_OF_ASC_NODE":266.0668,"ARG_OF_PERICENTER":202.2057,"MEAN_ANOMALY":157.8738,"EPHEMERIS_TYPE":0,"CLASSIFICATION_TYPE":"U","NORAD_CAT_ID":58873,"ELEMENT_SET_NO":999,"REV_AT_EPOCH":11861,"BSTAR":5.1941723e-5,"MEAN_MOTION_DOT":1.168e-5,"MEAN_MOTION_DDOT":0},{"OBJECT_NAME":"STARLINK-30945","OBJECT_ID":"2024-019X","EPOCH":"2026-03-07T05:25:23.341440","MEAN_MOTION":15.27573595,"ECCENTRICITY":0.00017217,"INCLINATION":42.9991,"RA_OF_ASC_NODE":262.9934,"ARG_OF_PERICENTER":268.4974,"MEAN_ANOMALY":91.5681,"EPHEMERIS_TYPE":0,"CLASSIFICATION_TYPE":"U","NORAD_CAT_ID":58874,"ELEMENT_SET_NO":999,"REV_AT_EPOCH":11870,"BSTAR":1.4288321e-5,"MEAN_MOTION_DOT":1.31e-6,"MEAN_MOTION_DDOT":0},{"OBJECT_NAME":"STARLINK-31212","OBJECT_ID":"2024-019Y","EPOCH":"2026-03-06T14:20:37.971744","MEAN_MOTION":15.27571979,"ECCENTRICITY":0.00010094,"INCLINATION":43.0013,"RA_OF_ASC_NODE":266.0312,"ARG_OF_PERICENTER":253.7533,"MEAN_ANOMALY":106.3208,"EPHEMERIS_TYPE":0,"CLASSIFICATION_TYPE":"U","NORAD_CAT_ID":58875,"ELEMENT_SET_NO":999,"REV_AT_EPOCH":11859,"BSTAR":-1.2897978e-5,"MEAN_MOTION_DOT":-6.17e-6,"MEAN_MOTION_DDOT":0},{"OBJECT_NAME":"STARLINK-31306","OBJECT_ID":"2024-020A","EPOCH":"2026-03-07T03:16:59.890656","MEAN_MOTION":15.30200772,"ECCENTRICITY":0.00010946,"INCLINATION":53.1609,"RA_OF_ASC_NODE":334.0383,"ARG_OF_PERICENTER":90.8865,"MEAN_ANOMALY":269.2261,"EPHEMERIS_TYPE":0,"CLASSIFICATION_TYPE":"U","NORAD_CAT_ID":58876,"ELEMENT_SET_NO":999,"REV_AT_EPOCH":11886,"BSTAR":0.00015919931,"MEAN_MOTION_DOT":4.359e-5,"MEAN_MOTION_DDOT":0},{"OBJECT_NAME":"STARLINK-31326","OBJECT_ID":"2024-020B","EPOCH":"2026-03-07T03:03:28.872000","MEAN_MOTION":15.30203127,"ECCENTRICITY":7.52e-5,"INCLINATION":53.162,"RA_OF_ASC_NODE":334.6852,"ARG_OF_PERICENTER":47.4384,"MEAN_ANOMALY":312.668,"EPHEMERIS_TYPE":0,"CLASSIFICATION_TYPE":"U","NORAD_CAT_ID":58877,"ELEMENT_SET_NO":999,"REV_AT_EPOCH":11767,"BSTAR":3.2543046e-5,"MEAN_MOTION_DOT":6.05e-6,"MEAN_MOTION_DDOT":0}]
