STARLINK-31200          
1 58862U 24019K   26065.81437794  .00001220  00000+0  53880-4 0  9999
2 58862  43.0018 265.0781 0001619 256.7950 103.2721 15.27571667118640
STARLINK-31149          
1 58863U 24019L   26066.24510420  .00002003  00000+0  82265-4 0  9995
2 58863  43.0015 262.2927 0001271 274.3269  85.7438 15.27583667118712
STARLINK-31242          
1 58864U 24019M   26065.62464123  .00000151  00000+0  15025-4 0  9997
2 58864  43.0012 266.2359 0001381 272.1056  87.9638 15.27578067118618
STARLINK-31223          
1 58865U 24019N   26065.62592883  .00000020  00000+0  10264-4 0  9998
2 58865  43.0014 266.2519 0001197 265.9374  94.1340 15.27576742118592
STARLINK-31219          
1 58866U 24019P   26065.53613155 -.00000678  00000+0 -15110-4 0  9991
2 58866  43.0021 266.4307 0000897 269.5453  90.5296 15.27572948118585
STARLINK-31198          
1 58867U 24019Q   26066.26437182  .00001020  00000+0  46610-4 0  9996
2 58867  43.0021 262.4211 0001395 266.5307  93.5385 15.27574360118699
STARLINK-31196          
1 58868U 24019R   26066.23881366  .00001522  00000+0  64802-4 0  9991
2 58868  42.9979 263.0988 0001129 279.7239  80.3485 15.27579257118687
STARLINK-31203          
1 58869U 24019S   26065.61355754  .00001605  00000+0  67861-4 0  9990
2 58869  43.0012 262.6703 0001383 261.7966  98.2729 15.27574533118656
STARLINK-31201          
1 58870U 24019T   26066.24766580  .00000869  00000+0  41115-4 0  9990
2 58870  43.0004 262.3108 0001269 276.2134  83.8573 15.27577820118699
STARLINK-31214          
1 58871U 24019U   26065.60665674 -.00000041  00000+0  80251-5 0  9990
2 58871  43.0041 266.0829 0001030 260.7491  99.3245 15.27571362118594
STARLINK-31215          
1 58872U 24019V   26066.26309344  .00000507  00000+0  27937-4 0  9990
2 58872  43.0059 262.4265 0001214 304.4022  55.6715 15.27574970118694
STARLINK-31177          
1 58873U 24019W   26065.60407167  .00001168  00000+0  51942-4 0  9997
2 58873  42.9988 266.0668 0001326 202.2057 157.8738 15.27581435118614
STARLINK-30945          
1 58874U 24019X   26066.22596460  .00000131  00000+0  14288-4 0  9993
2 58874  42.9991 262.9934 0001721 268.4974  91.5681 15.27573595118700
STARLINK-31212          
1 58875U 24019Y   26065.59766171 -.00000617  00000+0 -12898-4 0  9997
2 58875  43.0013 266.0312 0001009 253.7533 106.3208 15.27571979118591
STARLINK-31306          
1 58876U 24020A   26066.13680429  .00004359  00000+0  15920-3 0  9995
2 58876  53.1609 334.0383 0001094  90.8865 269.2261 15.30200772118863
STARLINK-31326          
1 58877U 24020B   26066.12741750  .00000605  00000+0  32543-4 0  9991
2 58877  53.1620 334.6852 0000752  47.4384 312.6680 15.30203127117671
